{"type": "FeatureCollection", "features": [{"type": "Feature", "geometry": {"type": "Polygon", "coordinates": [[[104.98, 8.75], [104.48, 10.38], [105.97, 10.41], [106.74, 10.4], [106.83, 10.28], [106.2, 9.48], [104.98, 8.75]]]}, "properties": {"date": "2018-03-09", "salinity": 1.0, "confidence": 0.85}}, {"type": "Feature", "geometry": {"type": "Polygon", "coordinates": [[[104.98, 8.75], [104.48, 10.38], [105.97, 10.41], [106.74, 10.4], [106.83, 10.28], [106.2, 9.48], [104.98, 8.75]]]}, "properties": {"date": "2018-03-09", "salinity": 4.0, "confidence": 0.85}}]}